
stk.v.11.0
BEGIN Ephemeris
NumberOfEphemerisPoints 1756
ScenarioEpoch 01 Jan 1970 00:00:00.000000
CentralBody Sun
CoordinateSystem ICRF
DistanceUnit Meters
EphemerisTimePosVel
1.9841759880000000e+09  1.7770290058438999e+10  3.8278301770175003e+10  1.8607481631077000e+10 -5.4692847478999996e+04  1.6288678015000000e+04  1.4368868349000000e+04
1.9850399880000000e+09 -3.0337395792620998e+10  3.2669652536015999e+10  2.0596131295794998e+10 -4.7981626455999998e+04 -2.6879737860000001e+04 -9.3877378140000001e+03
1.9859039880000000e+09 -5.6954966713801003e+10  7.8516869199800003e+08  6.3210621499650002e+09 -1.2892514381000001e+04 -4.1662411524000003e+04 -2.0920758067999999e+04
1.9867679880000000e+09 -5.4668556674320000e+10 -3.2853707935722000e+10 -1.1886231915513000e+10  1.6191237310000000e+04 -3.3859709624000003e+04 -1.9766070506000000e+04
1.9876319880000000e+09 -3.2499075482220001e+10 -5.5192595974428001e+10 -2.6117170132334000e+10  3.3179658787000000e+04 -1.6976872331999999e+04 -1.2507332876000000e+04
1.9884959880000000e+09 -5.4906711171599996e+08 -6.1241935127252998e+10 -3.2659438257379002e+10  3.8940788699999997e+04  3.2850670869999999e+03 -2.2800659070000002e+03
1.9893599880000000e+09  3.1428344175145000e+10 -4.9332802556116997e+10 -2.9610862815674000e+10  3.2926917035999999e+04  2.4138375930999999e+04  9.4832332680000000e+03
1.9902239880000000e+09  5.2019797752369003e+10 -2.0565684031226002e+10 -1.6376700793120001e+10  1.1838249191999999e+04  4.1129406997999999e+04  2.0745276032000002e+04
1.9910879880000000e+09  4.6717437636315002e+10  1.7058451442645000e+10  4.2720929114250002e+09 -2.6419926986999999e+04  4.1361862549999998e+04  2.4833713772999999e+04
1.9919519880000000e+09  7.8718924689370003e+09  4.0318374379022003e+10  2.0723003590875999e+10 -5.7762194055000000e+04  6.8758377389999996e+03  9.6583996750000006e+03
1.9928159880000000e+09 -3.8201783587917000e+10  2.7433945509313999e+10  1.8614024812389000e+10 -4.1523632051000001e+04 -3.2559952636000002e+04 -1.3091412366000000e+04
1.9936799880000000e+09 -5.8610067949555000e+10 -6.5070303308219995e+09  2.5969069696269999e+09 -6.0454380270000001e+03 -4.1329766148000002e+04 -2.1452581776999999e+04
1.9945439880000000e+09 -5.1433950169070999e+10 -3.8538739695818001e+10 -1.5258506668377001e+10  2.0597969802000000e+04 -3.0897463831000001e+04 -1.8640233186000001e+04
1.9954079880000000e+09 -2.6490775871456001e+10 -5.7826715341092003e+10 -2.8147012734216000e+10  3.5238867964999998e+04 -1.3032796541000000e+04 -1.0613712756999999e+04
1.9962719880000000e+09  6.2719889465450001e+09 -6.0290698539255997e+10 -3.2858128885487999e+10  3.8738622551000000e+04  7.5604881759999998e+03  2.4908442000000001e+01
1.9971359880000000e+09  3.6958829677120003e+10 -4.4744350656091003e+10 -2.7732735776909000e+10  3.0015102218000000e+04  2.8139239853999999e+04  1.1922321486999999e+04
1.9979999880000000e+09  5.3536876235813004e+10 -1.3156953099688999e+10 -1.2576030869159000e+10  5.3304452950000004e+03  4.3201395347999998e+04  2.2526542272999999e+04
1.9988639880000000e+09  4.1319847338615997e+10  2.3986816922994999e+10  8.5326653792279997e+09 -3.5043645257999997e+04  3.7328657207999997e+04  2.3572712492999999e+04
1.9997279880000000e+09 -2.3577472207570000e+09  4.0676959117086998e+10  2.1974584873004002e+10 -5.8422892789999998e+04 -2.7715692199999999e+03  4.5730378989999999e+03
2.0005919880000000e+09 -4.4868541927282997e+10  2.1330307061958000e+10  1.6044169866525999e+10 -3.4381649373000000e+04 -3.6765825661000003e+04 -1.6078342460000000e+04
2.0014559880000000e+09 -5.9102424873086998e+10 -1.3673346992863001e+10 -1.1804612731589999e+09  3.5733769100000001e+02 -4.0237143797999997e+04 -2.1532357390000001e+04
2.0023199880000000e+09 -4.7469908163616997e+10 -4.3679145475642998e+10 -1.8415379091126999e+10  2.4505232521999998e+04 -2.7651838585000001e+04 -1.7311237269000001e+04
2.0031839880000000e+09 -2.0160101306844002e+10 -5.9759396194163002e+10 -2.9835489699048000e+10  3.6846624583999997e+04 -8.9814429600000003e+03 -8.6159940850000003e+03
2.0040479880000000e+09  1.3015524639165001e+10 -5.8588152847625999e+10 -3.2647370459577999e+10  3.8042752393000002e+04  1.1843270621000000e+04  2.3849741250000002e+03
2.0049119880000000e+09  4.1922135084567001e+10 -3.9469305575238998e+10 -2.5428996710973999e+10  2.6444369448000001e+04  3.1946403414000000e+04  1.4326199199999999e+04
2.0057759880000000e+09  5.3845313892024002e+10 -5.4530297804040003e+09 -8.4923891182159996e+09 -1.9367166290000000e+03  4.4452593438000004e+04  2.3947985841000002e+04
2.0066399880000000e+09  3.4453843875196999e+10  3.0058352687092999e+10  1.2487665715000000e+10 -4.3068571057000001e+04  3.1591030377999999e+04  2.1339089355000000e+04
2.0075039880000000e+09 -1.2492157775000000e+10  3.9369503494958000e+10  2.2326240724346001e+10 -5.6715494019999998e+04 -1.2018856043000000e+04 -5.4398447599999997e+02
2.0083679880000000e+09 -5.0251363150649002e+10  1.4613285999763000e+10  1.3013551425312000e+10 -2.6954639767000001e+04 -3.9583139455999997e+04 -1.8353015579999999e+04
2.0092319880000000e+09 -5.8514101987279999e+10 -2.0590452995578999e+10 -4.9367144507430000e+09  6.2666742240000003e+03 -3.8520088272000001e+04 -2.1227409855000002e+04
2.0100959880000000e+09 -4.2863541026081001e+10 -4.8228558506045998e+10 -2.1323117325673000e+10  2.7924997470999999e+04 -2.4174832571999999e+04 -1.5808104630000000e+04
2.0109599880000000e+09 -1.3587294942860001e+10 -6.0973267384404999e+10 -3.1165069958584000e+10  3.8003099581000002e+04 -4.8448558750000002e+03 -6.5259675880000004e+03
2.0118239880000000e+09  1.9591571726716999e+10 -5.6135514063499001e+10 -3.2018551336741001e+10  3.6829472592999999e+04  1.6107024485000000e+04  4.7884905730000000e+03
2.0126879880000000e+09  4.6197731103308998e+10 -3.3549208364886002e+10 -2.2709409806487999e+10  2.2172133889000001e+04  3.5481126161000000e+04  1.6657214886999998e+04
2.0135519880000000e+09  5.2817335981540001e+10  2.3826511400770001e+09 -4.1999008063119998e+09 -9.8843401470000008e+03  4.4671969311000001e+04  2.4888711274000001e+04
2.0144159880000000e+09  2.6275142439514999e+10  3.4978933116160004e+10  1.5963804670329000e+10 -4.9913328141999998e+04  2.4246845385000001e+04  1.8124933346000002e+04
2.0152799880000000e+09 -2.2138508070534000e+10  3.6514758558226997e+10  2.1800729338827999e+10 -5.2932936748000000e+04 -2.0334279618000000e+04 -5.3781887850000003e+03
2.0161439880000000e+09 -5.4328477587501999e+10  7.5134738536709995e+09  9.6431594909549999e+09 -1.9543924682000001e+04 -4.1160037908999999e+04 -1.9963327292999998e+04
2.0170079880000000e+09 -5.6933808421482002e+10 -2.7159787577328999e+10 -8.6099404080160007e+09  1.1662613632000001e+04 -3.6292190949000003e+04 -2.0596356151000000e+04
2.0178719880000000e+09 -3.7699054206247002e+10 -5.2150684704417000e+10 -2.3953546462945999e+10  3.0870042072000000e+04 -2.0507571991000001e+04 -1.4154138374000000e+04
2.0187359880000000e+09 -6.8515834366800003e+09 -6.1455610510877998e+10 -3.2120689644584999e+10  3.8704493742999999e+04 -6.4262107900000001e+02 -4.3536916469999996e+03
2.0195999880000000e+09  2.5906996074477001e+10 -5.2939586973285004e+10 -3.0965575707889000e+10  3.5069702400000002e+04  2.0320128541999999e+04  7.2216119490000001e+03
2.0204639880000000e+09  4.9659283401155998e+10 -2.7041849566147999e+10 -1.9591649170213001e+10  1.7159251746999998e+04  3.8643105562999997e+04  1.8865863289000001e+04
2.0213279880000000e+09  5.0347759914362000e+10  1.0146972634763000e+10  2.0392815363000000e+08 -1.8351773808999998e+04  4.3632330005000003e+04  2.5210662177999999e+04
2.0221919880000000e+09  1.7045558532837999e+10  3.8489294913508003e+10  1.8795485259325001e+10 -5.5003964009000003e+04  1.5601746761000000e+04  1.4033938753000000e+04
2.0230559880000000e+09 -3.0968197752386002e+10  3.2311526584153000e+10  2.0470137416381001e+10 -4.7529179186000001e+04 -2.7359202590000001e+04 -9.6910525060000000e+03
2.0239199880000000e+09 -5.7121552744885002e+10  2.3477725725700000e+08  6.0440394392530003e+09 -1.2362803255999999e+04 -4.1667337593999997e+04 -2.0978464165000001e+04
2.0247839880000000e+09 -5.4451776023475998e+10 -3.3299700979977001e+10 -1.2147302919865999e+10  1.6541238122999999e+04 -3.3647850543000000e+04 -1.9689194889999999e+04
2.0256479880000000e+09 -3.2058629643938000e+10 -5.5414912531281998e+10 -2.6281900053429001e+10  3.3350956405999998e+04 -1.6683839946000000e+04 -1.2368450628000001e+04
2.0265119880000000e+09 -3.3396226017000001e+07 -6.1196040982761002e+10 -3.2688562635374001e+10  3.8942403772999998e+04  3.6067624959999998e+03 -2.1082019439999999e+03
2.0273759880000000e+09  3.1863112421827000e+10 -4.9011039846724998e+10 -2.9484057235917000e+10  3.2729195240000001e+04  2.4445483645000000e+04  9.6679986690000005e+03
2.0282399880000000e+09  5.2173563675296997e+10 -2.0019888223537998e+10 -1.6100917349302000e+10  1.1374344625000000e+04  4.1309979257999999e+04  2.0889991797999999e+04
2.0291039880000000e+09  4.6363342653181999e+10  1.7604425769273998e+10  4.6006958508699999e+09 -2.7079581529999999e+04  4.1116127854999999e+04  2.4770817099000000e+04
2.0299679880000000e+09  7.1063593538570004e+09  4.0404590467944000e+10  2.0848546595124001e+10 -5.7897163030000003e+04  6.1480805200000004e+03  9.2833939840000003e+03
2.0308319880000000e+09 -3.8747958064040001e+10  2.7000619127094002e+10  1.8439063195840000e+10 -4.1003128728999996e+04 -3.2927987236000001e+04 -1.3342226382000001e+04
2.0316959880000000e+09 -5.8686702683013000e+10 -7.0535486629300003e+09  2.3126369258740001e+09 -5.5459847700000000e+03 -4.1272033614000000e+04 -2.1473640674999999e+04
2.0325599880000000e+09 -5.1158978337209999e+10 -3.8946011028197998e+10 -1.5504886705910999e+10  2.0910285540000001e+04 -3.0661819313000000e+04 -1.8546715785000000e+04
2.0334239880000000e+09 -2.6022911178646999e+10 -5.7997065066999001e+10 -2.8286766811855999e+10  3.5376153574000004e+04 -1.2730556052000000e+04 -1.0466369873000000e+04
END Ephemeris